start=new Date('2023-03-02T00:00:00.000Z').valueOf();
sats=[{"MEAN_ELEMENT_THEORY":"SGP4","DECAY_DATE":null,"MEAN_MOTION":"15.06370322","EPHEMERIS_TYPE":"0","CLASSIFICATION_TYPE":"U","OBJECT_ID":"2020-025BH","REF_FRAME":"TEME","NORAD_CAT_ID":"45586","RA_OF_ASC_NODE":"353.9626","REV_AT_EPOCH":"15905","MEAN_MOTION_DOT":"0.00022081","OBJECT_NAME":"STARLINK-1347","ELEMENT_SET_NO":"999","SITE":"AFETR","ARG_OF_PERICENTER":"127.1198","TIME_SYSTEM":"UTC","MEAN_ANOMALY":"232.9934","RCS_SIZE":"LARGE","COUNTRY_CODE":"US","PERIOD":"95.594","GP_ID":"227316284","TLE_LINE1":"1 45586U 20025BH  23060.40032722  .00022081  00000-0  14978-2 0  9992","TLE_LINE2":"2 45586  53.0542 353.9626 0001563 127.1198 232.9934 15.06370322159058","ECCENTRICITY":"0.00015630","APOAPSIS":"548.387","EPOCH":"2023-03-01T09:36:28.271808","CENTER_NAME":"EARTH","FILE":"3848834","SEMIMAJOR_AXIS":"6925.440","PERIAPSIS":"546.222","BSTAR":"0.00149780000000","LAUNCH_DATE":"2020-04-22","OBJECT_TYPE":"PAYLOAD","MEAN_MOTION_DDOT":"0.0000000000000","INCLINATION":"53.0542"},{"EPOCH":"2023-03-01T07:18:27.114336","FILE":"3848834","CENTER_NAME":"EARTH","SEMIMAJOR_AXIS":"6925.600","GP_ID":"227315037","TLE_LINE2":"2 45587  53.0556 354.4002 0001056 102.2789 257.8318 15.06318001159053","ECCENTRICITY":"0.00010560","APOAPSIS":"548.196","TLE_LINE1":"1 45587U 20025BJ  23060.30448049 -.00031267  00000-0 -20941-2 0  9990","MEAN_MOTION_DDOT":"0.0000000000000","INCLINATION":"53.0556","BSTAR":"-0.00209410000000","PERIAPSIS":"546.734","OBJECT_TYPE":"PAYLOAD","LAUNCH_DATE":"2020-04-22","REF_FRAME":"TEME","RA_OF_ASC_NODE":"354.4002","NORAD_CAT_ID":"45587","CLASSIFICATION_TYPE":"U","OBJECT_ID":"2020-025BJ","REV_AT_EPOCH":"15905","MEAN_MOTION_DOT":"-0.00031267","ELEMENT_SET_NO":"999","OBJECT_NAME":"STARLINK-1349","MEAN_ELEMENT_THEORY":"SGP4","MEAN_MOTION":"15.06318001","DECAY_DATE":null,"EPHEMERIS_TYPE":"0","COUNTRY_CODE":"US","PERIOD":"95.597","SITE":"AFETR","ARG_OF_PERICENTER":"102.2789","TIME_SYSTEM":"UTC","RCS_SIZE":"LARGE","MEAN_ANOMALY":"257.8318"},{"MEAN_MOTION_DDOT":"0.0000000000000","INCLINATION":"53.0558","OBJECT_TYPE":"PAYLOAD","LAUNCH_DATE":"2020-04-22","BSTAR":"0.00065164000000","PERIAPSIS":"546.240","FILE":"3848834","CENTER_NAME":"EARTH","EPOCH":"2023-03-01T06:46:36.964992","SEMIMAJOR_AXIS":"6925.448","GP_ID":"227315286","TLE_LINE2":"2 45588  53.0558 354.4939 0001549 104.8362 255.2799 15.06367555159049","ECCENTRICITY":"0.00015490","APOAPSIS":"548.386","TLE_LINE1":"1 45588U 20025BK  23060.28237228  .00009429  00000-0  65164-3 0  9993","PERIOD":"95.594","COUNTRY_CODE":"US","ARG_OF_PERICENTER":"104.8362","SITE":"AFETR","RCS_SIZE":"LARGE","MEAN_ANOMALY":"255.2799","TIME_SYSTEM":"UTC","REV_AT_EPOCH":"15904","REF_FRAME":"TEME","RA_OF_ASC_NODE":"354.4939","NORAD_CAT_ID":"45588","CLASSIFICATION_TYPE":"U","OBJECT_ID":"2020-025BK","ELEMENT_SET_NO":"999","OBJECT_NAME":"STARLINK-1360","MEAN_MOTION_DOT":"0.00009429","DECAY_DATE":null,"MEAN_MOTION":"15.06367555","MEAN_ELEMENT_THEORY":"SGP4","EPHEMERIS_TYPE":"0"},{"EPOCH":"2023-03-01T06:41:18.684672","CENTER_NAME":"EARTH","FILE":"3848834","SEMIMAJOR_AXIS":"6925.508","GP_ID":"227316037","TLE_LINE1":"1 45589U 20025BL  23060.27868848  .00003892  00000-0  28041-3 0  9992","APOAPSIS":"548.281","TLE_LINE2":"2 45589  53.0545 354.5186 0001310  87.4024 272.7115 15.06347843159042","ECCENTRICITY":"0.00013100","MEAN_MOTION_DDOT":"0.0000000000000","INCLINATION":"53.0545","PERIAPSIS":"546.466","BSTAR":"0.00028041000000","LAUNCH_DATE":"2020-04-22","OBJECT_TYPE":"PAYLOAD","OBJECT_ID":"2020-025BL","CLASSIFICATION_TYPE":"U","REF_FRAME":"TEME","NORAD_CAT_ID":"45589","RA_OF_ASC_NODE":"354.5186","REV_AT_EPOCH":"15904","MEAN_MOTION_DOT":"0.00003892","OBJECT_NAME":"STARLINK-1364","ELEMENT_SET_NO":"999","MEAN_ELEMENT_THEORY":"SGP4","MEAN_MOTION":"15.06347843","DECAY_DATE":null,"EPHEMERIS_TYPE":"0","COUNTRY_CODE":"US","PERIOD":"95.595","ARG_OF_PERICENTER":"87.4024","SITE":"AFETR","TIME_SYSTEM":"UTC","MEAN_ANOMALY":"272.7115","RCS_SIZE":"LARGE"},{"OBJECT_TYPE":"PAYLOAD","LAUNCH_DATE":"2020-04-22","BSTAR":"0.00086729000000","PERIAPSIS":"546.161","INCLINATION":"53.0556","MEAN_MOTION_DDOT":"0.0000000000000","TLE_LINE2":"2 45590  53.0556  21.7601 0001600  72.6279 287.4885 15.06381954158734","APOAPSIS":"548.377","ECCENTRICITY":"0.00016000","TLE_LINE1":"1 45590U 20025BM  23060.89146860  .00012654  00000-0  86729-3 0  9998","GP_ID":"227316783","SEMIMAJOR_AXIS":"6925.404","FILE":"3848834","CENTER_NAME":"EARTH","EPOCH":"2023-03-01T21:23:42.887040","RCS_SIZE":"LARGE","MEAN_ANOMALY":"287.4885","TIME_SYSTEM":"UTC","ARG_OF_PERICENTER":"72.6279","SITE":"AFETR","PERIOD":"95.593","COUNTRY_CODE":"US","EPHEMERIS_TYPE":"0","DECAY_DATE":null,"MEAN_MOTION":"15.06381954","MEAN_ELEMENT_THEORY":"SGP4","ELEMENT_SET_NO":"999","OBJECT_NAME":"STARLINK-1365","MEAN_MOTION_DOT":"0.00012654","REV_AT_EPOCH":"15873","RA_OF_ASC_NODE":"21.7601","REF_FRAME":"TEME","NORAD_CAT_ID":"45590","CLASSIFICATION_TYPE":"U","OBJECT_ID":"2020-025BM"},{"INCLINATION":"53.0544","MEAN_MOTION_DDOT":"0.0000000000000","OBJECT_TYPE":"PAYLOAD","LAUNCH_DATE":"2020-06-04","BSTAR":"0.00047532000000","PERIAPSIS":"546.675","SEMIMAJOR_AXIS":"6925.499","FILE":"3848834","CENTER_NAME":"EARTH","EPOCH":"2023-03-01T06:26:42.816768","TLE_LINE2":"2 45658  53.0544 344.5618 0000994  87.5864 272.5238 15.06350976152270","APOAPSIS":"548.052","ECCENTRICITY":"0.00009940","TLE_LINE1":"1 45658U 20035B   23060.26855112  .00006796  00000-0  47532-3 0  9991","GP_ID":"227315291","PERIOD":"95.595","COUNTRY_CODE":"US","RCS_SIZE":"LARGE","MEAN_ANOMALY":"272.5238","TIME_SYSTEM":"UTC","ARG_OF_PERICENTER":"87.5864","SITE":"AFETR","ELEMENT_SET_NO":"999","OBJECT_NAME":"STARLINK-1441","MEAN_MOTION_DOT":"0.00006796","REV_AT_EPOCH":"15227","REF_FRAME":"TEME","NORAD_CAT_ID":"45658","RA_OF_ASC_NODE":"344.5618","CLASSIFICATION_TYPE":"U","OBJECT_ID":"2020-035B","EPHEMERIS_TYPE":"0","MEAN_MOTION":"15.06350976","DECAY_DATE":null,"MEAN_ELEMENT_THEORY":"SGP4"},{"TLE_LINE1":"1 45659U 20035C   23060.27129218  .00008025  00000-0  55780-3 0  9995","APOAPSIS":"548.725","TLE_LINE2":"2 45659  53.0557 344.5442 0001958 139.1903 220.9233 15.06349278152263","ECCENTRICITY":"0.00019580","GP_ID":"227316042","SEMIMAJOR_AXIS":"6925.504","EPOCH":"2023-03-01T06:30:39.644352","CENTER_NAME":"EARTH","FILE":"3848834","PERIAPSIS":"546.013","BSTAR":"0.00055780000000","LAUNCH_DATE":"2020-06-04","OBJECT_TYPE":"PAYLOAD","INCLINATION":"53.0557","MEAN_MOTION_DDOT":"0.0000000000000","EPHEMERIS_TYPE":"0","MEAN_ELEMENT_THEORY":"SGP4","DECAY_DATE":null,"MEAN_MOTION":"15.06349278","MEAN_MOTION_DOT":"0.00008025","OBJECT_NAME":"STARLINK-1442","ELEMENT_SET_NO":"999","CLASSIFICATION_TYPE":"U","OBJECT_ID":"2020-035C","RA_OF_ASC_NODE":"344.5442","REF_FRAME":"TEME","NORAD_CAT_ID":"45659","REV_AT_EPOCH":"15226","TIME_SYSTEM":"UTC","MEAN_ANOMALY":"220.9233","RCS_SIZE":"LARGE","ARG_OF_PERICENTER":"139.1903","SITE":"AFETR","COUNTRY_CODE":"US","PERIOD":"95.595"},{"MEAN_MOTION_DOT":"-0.00002777","ELEMENT_SET_NO":"999","OBJECT_NAME":"STARLINK-1443","REF_FRAME":"TEME","RA_OF_ASC_NODE":"344.2167","NORAD_CAT_ID":"45660","OBJECT_ID":"2020-035D","CLASSIFICATION_TYPE":"U","REV_AT_EPOCH":"15228","EPHEMERIS_TYPE":"0","MEAN_ELEMENT_THEORY":"SGP4","DECAY_DATE":null,"MEAN_MOTION":"15.06373148","COUNTRY_CODE":"US","PERIOD":"95.594","TIME_SYSTEM":"UTC","RCS_SIZE":"LARGE","MEAN_ANOMALY":"268.0253","ARG_OF_PERICENTER":"92.0924","SITE":"AFETR","SEMIMAJOR_AXIS":"6925.431","EPOCH":"2023-03-01T08:18:09.641952","FILE":"3848834","CENTER_NAME":"EARTH","APOAPSIS":"548.430","TLE_LINE2":"2 45660  53.0548 344.2167 0001637  92.0924 268.0253 15.06373148152280","ECCENTRICITY":"0.00016370","TLE_LINE1":"1 45660U 20035D   23060.34594493 -.00002777  00000-0 -16772-3 0  9994","GP_ID":"227316788","INCLINATION":"53.0548","MEAN_MOTION_DDOT":"0.0000000000000","BSTAR":"-0.00016772000000","PERIAPSIS":"546.162","OBJECT_TYPE":"PAYLOAD","LAUNCH_DATE":"2020-06-04"},{"SEMIMAJOR_AXIS":"6925.373","EPOCH":"2023-03-01T10:20:15.573120","CENTER_NAME":"EARTH","FILE":"3848834","TLE_LINE1":"1 45661U 20035E   23060.43073580  .00014217  00000-0  97162-3 0  9996","TLE_LINE2":"2 45661  53.0546 343.8327 0001035 116.4553 243.6542 15.06392056152293","ECCENTRICITY":"0.00010350","APOAPSIS":"547.955","GP_ID":"227315541","INCLINATION":"53.0546","MEAN_MOTION_DDOT":"0.0000000000000","PERIAPSIS":"546.521","BSTAR":"0.00097162000000","LAUNCH_DATE":"2020-06-04","OBJECT_TYPE":"PAYLOAD","MEAN_MOTION_DOT":"0.00014217","OBJECT_NAME":"STARLINK-1444","ELEMENT_SET_NO":"999","CLASSIFICATION_TYPE":"U","OBJECT_ID":"2020-035E","RA_OF_ASC_NODE":"343.8327","NORAD_CAT_ID":"45661","REF_FRAME":"TEME","REV_AT_EPOCH":"15229","EPHEMERIS_TYPE":"0","MEAN_ELEMENT_THEORY":"SGP4","MEAN_MOTION":"15.06392056","DECAY_DATE":null,"COUNTRY_CODE":"US","PERIOD":"95.593","TIME_SYSTEM":"UTC","MEAN_ANOMALY":"243.6542","RCS_SIZE":"LARGE","ARG_OF_PERICENTER":"116.4553","SITE":"AFETR"},{"MEAN_MOTION_DDOT":"0.0000000000000","INCLINATION":"53.0528","LAUNCH_DATE":"2020-06-04","OBJECT_TYPE":"PAYLOAD","PERIAPSIS":"546.462","BSTAR":"0.00150440000000","CENTER_NAME":"EARTH","FILE":"3848834","EPOCH":"2023-03-01T05:54:51.437952","SEMIMAJOR_AXIS":"6925.500","GP_ID":"227315791","TLE_LINE1":"1 45662U 20035F   23060.24642868  .00022168  00000-0  15044-2 0  9999","APOAPSIS":"548.268","TLE_LINE2":"2 45662  53.0528 344.6642 0001304  84.0011 276.1126 15.06350620152268","ECCENTRICITY":"0.00013040","PERIOD":"95.595","COUNTRY_CODE":"US","ARG_OF_PERICENTER":"84.0011","SITE":"AFETR","MEAN_ANOMALY":"276.1126","RCS_SIZE":"LARGE","TIME_SYSTEM":"UTC","REV_AT_EPOCH":"15226","OBJECT_ID":"2020-035F","CLASSIFICATION_TYPE":"U","REF_FRAME":"TEME","NORAD_CAT_ID":"45662","RA_OF_ASC_NODE":"344.6642","OBJECT_NAME":"STARLINK-1445","ELEMENT_SET_NO":"999","MEAN_MOTION_DOT":"0.00022168","DECAY_DATE":null,"MEAN_MOTION":"15.06350620","MEAN_ELEMENT_THEORY":"SGP4","EPHEMERIS_TYPE":"0"}];
